{
  "type": "FeatureCollection",
  "features": [
    {
      "type": "Feature",
      "properties": {
        "norad_id": 41866,
        "name": "GOES 16",
        "group": "weather",
        "lat": -0.02243696908147899,
        "lon": 59.40666273747691,
        "alt_km": 35799.85494541792,
        "timestamp": "2025-12-09T05:43:20.369894+00:00",
        "meta_object_name": "GOES 16",
        "meta_object_id": "2016-071A",
        "meta_epoch": "2025-12-08T16:31:50.426976",
        "meta_mean_motion": 1.00270857,
        "meta_eccentricity": 0.0003424,
        "meta_inclination": 0.0682,
        "meta_ra_of_asc_node": 102.9422,
        "meta_arg_of_pericenter": 157.8049,
        "meta_mean_anomaly": 320.234,
        "meta_ephemeris_type": 0,
        "meta_classification_type": "U",
        "meta_norad_cat_id": 41866,
        "meta_element_set_no": 999,
        "meta_rev_at_epoch": 3319,
        "meta_bstar": 0,
        "meta_mean_motion_dot": -8.9e-07,
        "meta_mean_motion_ddot": 0,
        "tle_line1": "1 41866U 16071A   25342.68877809 -.00000089  00000+0  00000+0 0  9995",
        "tle_line2": "2 41866   0.0682 102.9422 0003424 157.8049 320.2340  1.00270857 33190"
      },
      "geometry": {
        "type": "Point",
        "coordinates": [
          59.40666273747691,
          -0.02243696908147899
        ]
      }
    },
    {
      "type": "Feature",
      "properties": {
        "norad_id": 41882,
        "name": "FENGYUN 4A",
        "group": "weather",
        "lat": -0.8112510615150205,
        "lon": -72.0532387452594,
        "alt_km": 35775.51677776117,
        "timestamp": "2025-12-09T05:43:20.369907+00:00",
        "meta_object_name": "FENGYUN 4A",
        "meta_object_id": "2016-077A",
        "meta_epoch": "2025-12-08T17:16:38.775072",
        "meta_mean_motion": 1.00275455,
        "meta_eccentricity": 0.0004933,
        "meta_inclination": 1.839,
        "meta_ra_of_asc_node": 82.4323,
        "meta_arg_of_pericenter": 143.079,
        "meta_mean_anomaly": 235.2066,
        "meta_ephemeris_type": 0,
        "meta_classification_type": "U",
        "meta_norad_cat_id": 41882,
        "meta_element_set_no": 999,
        "meta_rev_at_epoch": 3302,
        "meta_bstar": 0,
        "meta_mean_motion_dot": -3.55e-06,
        "meta_mean_motion_ddot": 0,
        "tle_line1": "1 41882U 16077A   25342.71989323 -.00000355  00000+0  00000+0 0  9994",
        "tle_line2": "2 41882   1.8390  82.4323 0004933 143.0790 235.2066  1.00275455 33022"
      },
      "geometry": {
        "type": "Point",
        "coordinates": [
          -72.0532387452594,
          -0.8112510615150205
        ]
      }
    },
    {
      "type": "Feature",
      "properties": {
        "norad_id": 41884,
        "name": "CYGFM05",
        "group": "weather",
        "lat": -34.66589725373844,
        "lon": -28.182390219152865,
        "alt_km": 428.8463132006018,
        "timestamp": "2025-12-09T05:43:20.369919+00:00",
        "meta_object_name": "CYGFM05",
        "meta_object_id": "2016-078A",
        "meta_epoch": "2025-12-08T16:12:15.133824",
        "meta_mean_motion": 15.47410776,
        "meta_eccentricity": 0.0009639,
        "meta_inclination": 34.9598,
        "meta_ra_of_asc_node": 73.6774,
        "meta_arg_of_pericenter": 145.1655,
        "meta_mean_anomaly": 214.9699,
        "meta_ephemeris_type": 0,
        "meta_classification_type": "U",
        "meta_norad_cat_id": 41884,
        "meta_element_set_no": 999,
        "meta_rev_at_epoch": 49913,
        "meta_bstar": 0.00049403,
        "meta_mean_motion_dot": 0.00026159,
        "meta_mean_motion_ddot": 0,
        "tle_line1": "1 41884U 16078A   25342.67517516  .00026159  00000+0  49403-3 0  9996",
        "tle_line2": "2 41884  34.9598  73.6774 0009639 145.1655 214.9699 15.47410776499131"
      },
      "geometry": {
        "type": "Point",
        "coordinates": [
          -28.182390219152865,
          -34.66589725373844
        ]
      }
    },
    {
      "type": "Feature",
      "properties": {
        "norad_id": 41885,
        "name": "CYGFM04",
        "group": "weather",
        "lat": 32.94997970188212,
        "lon": 156.6632558622329,
        "alt_km": 408.2567514582706,
        "timestamp": "2025-12-09T05:43:20.369930+00:00",
        "meta_object_name": "CYGFM04",
        "meta_object_id": "2016-078B",
        "meta_epoch": "2025-12-08T13:48:05.285088",
        "meta_mean_motion": 15.50097993,
        "meta_eccentricity": 0.0009015,
        "meta_inclination": 34.9353,
        "meta_ra_of_asc_node": 49.227,
        "meta_arg_of_pericenter": 173.4437,
        "meta_mean_anomaly": 186.6404,
        "meta_ephemeris_type": 0,
        "meta_classification_type": "U",
        "meta_norad_cat_id": 41885,
        "meta_element_set_no": 999,
        "meta_rev_at_epoch": 49929,
        "meta_bstar": 0.00050242,
        "meta_mean_motion_dot": 0.00029253,
        "meta_mean_motion_ddot": 0,
        "tle_line1": "1 41885U 16078B   25342.57506117  .00029253  00000+0  50242-3 0  9992",
        "tle_line2": "2 41885  34.9353  49.2270 0009015 173.4437 186.6404 15.50097993499293"
      },
      "geometry": {
        "type": "Point",
        "coordinates": [
          156.6632558622329,
          32.94997970188212
        ]
      }
    },
    {
      "type": "Feature",
      "properties": {
        "norad_id": 41886,
        "name": "CYGFM02",
        "group": "weather",
        "lat": 33.77649342197992,
        "lon": 149.9356859849125,
        "alt_km": 404.21328842182356,
        "timestamp": "2025-12-09T05:43:20.369947+00:00",
        "meta_object_name": "CYGFM02",
        "meta_object_id": "2016-078C",
        "meta_epoch": "2025-12-08T13:50:02.361408",
        "meta_mean_motion": 15.51459598,
        "meta_eccentricity": 0.0010683,
        "meta_inclination": 34.9442,
        "meta_ra_of_asc_node": 47.5977,
        "meta_arg_of_pericenter": 172.6655,
        "meta_mean_anomaly": 187.4225,
        "meta_ephemeris_type": 0,
        "meta_classification_type": "U",
        "meta_norad_cat_id": 41886,
        "meta_element_set_no": 999,
        "meta_rev_at_epoch": 49942,
        "meta_bstar": 0.00050542,
        "meta_mean_motion_dot": 0.00030924,
        "meta_mean_motion_ddot": 0,
        "tle_line1": "1 41886U 16078C   25342.57641622  .00030924  00000+0  50542-3 0  9994",
        "tle_line2": "2 41886  34.9442  47.5977 0010683 172.6655 187.4225 15.51459598499423"
      },
      "geometry": {
        "type": "Point",
        "coordinates": [
          149.9356859849125,
          33.77649342197992
        ]
      }
    },
    {
      "type": "Feature",
      "properties": {
        "norad_id": 41887,
        "name": "CYGFM01",
        "group": "weather",
        "lat": -29.6969441373227,
        "lon": 17.606472670147518,
        "alt_km": 430.1194832477104,
        "timestamp": "2025-12-09T05:43:20.369969+00:00",
        "meta_object_name": "CYGFM01",
        "meta_object_id": "2016-078D",
        "meta_epoch": "2025-12-08T16:03:02.145312",
        "meta_mean_motion": 15.47982626,
        "meta_eccentricity": 0.0009184,
        "meta_inclination": 34.9428,
        "meta_ra_of_asc_node": 76.0976,
        "meta_arg_of_pericenter": 136.6674,
        "meta_mean_anomaly": 223.4771,
        "meta_ephemeris_type": 0,
        "meta_classification_type": "U",
        "meta_norad_cat_id": 41887,
        "meta_element_set_no": 999,
        "meta_rev_at_epoch": 49907,
        "meta_bstar": 0.00050736,
        "meta_mean_motion_dot": 0.00027409,
        "meta_mean_motion_ddot": 0,
        "tle_line1": "1 41887U 16078D   25342.66877483  .00027409  00000+0  50736-3 0  9990",
        "tle_line2": "2 41887  34.9428  76.0976 0009184 136.6674 223.4771 15.47982626499075"
      },
      "geometry": {
        "type": "Point",
        "coordinates": [
          17.606472670147518,
          -29.6969441373227
        ]
      }
    },
    {
      "type": "Feature",
      "properties": {
        "norad_id": 41888,
        "name": "CYGFM08",
        "group": "weather",
        "lat": -14.929335090528422,
        "lon": 32.95958130439121,
        "alt_km": 426.9369370124559,
        "timestamp": "2025-12-09T05:43:20.369984+00:00",
        "meta_object_name": "CYGFM08",
        "meta_object_id": "2016-078E",
        "meta_epoch": "2025-12-08T14:22:18.111936",
        "meta_mean_motion": 15.49171763,
        "meta_eccentricity": 0.0011072,
        "meta_inclination": 34.9463,
        "meta_ra_of_asc_node": 59.5943,
        "meta_arg_of_pericenter": 161.1133,
        "meta_mean_anomaly": 199.0001,
        "meta_ephemeris_type": 0,
        "meta_classification_type": "U",
        "meta_norad_cat_id": 41888,
        "meta_element_set_no": 999,
        "meta_rev_at_epoch": 49929,
        "meta_bstar": 0.00050019,
        "meta_mean_motion_dot": 0.00028201,
        "meta_mean_motion_ddot": 0,
        "tle_line1": "1 41888U 16078E   25342.59882074  .00028201  00000+0  50019-3 0  9990",
        "tle_line2": "2 41888  34.9463  59.5943 0011072 161.1133 199.0001 15.49171763499299"
      },
      "geometry": {
        "type": "Point",
        "coordinates": [
          32.95958130439121,
          -14.929335090528422
        ]
      }
    }
  ]
}